METHANESAT              
1 59101U 24043D   25311.27302017  .00005067  00000+0  45148-3 0  9995
2 59101  97.8190  76.8803 0011133  35.6020 324.5942 14.96421136 91443
GOSAT-GW (IBUKI GW)     
1 64694U 25141A   25311.32834259  .00001517  00000+0  27557-3 0  9992
2 64694  98.0365 247.4924 0001402  84.1152 276.0213 14.67575326 19302
GHGSAT-C1               
1 46278U 20061G   25311.25094958  .00031122  00000+0  43744-3 0  9993
2 46278  97.2360  26.3373 0002927 125.0551 235.0979 15.56638179288799
GHGSAT-C12              
1 64529U 25135B   25311.30526972  .00006265  00000+0  30941-3 0  9996
2 64529  97.4605  63.6625 0004369 212.5461 147.5504 15.18217604 21138
GHGSAT-C13              
1 64548U 25135W   25311.28428792  .00005717  00000+0  27600-3 0  9994
2 64548  97.4629  63.8835 0002166 127.3777 232.7655 15.19051895 21140
GHGSAT-C2               
1 47509U 21006DA  25311.10215847  .00008562  00000+0  25926-3 0  9991
2 47509  97.2494 357.2008 0004001 235.6116 124.4750 15.34399290265759
GHGSAT-C3               
1 52737U 22057F   25311.32269343  .00011209  00000+0  38126-3 0  9999
2 52737  97.6323  84.7083 0006657 177.9522 182.1747 15.30596445191556
GHGSAT-C4               
1 52746U 22057Q   25311.34155708  .00010565  00000+0  35958-3 0  9994
2 52746  97.6251  83.7814 0007166 164.5445 195.6015 15.30589974191566
GHGSAT-C5               
1 52744U 22057N   25311.29315781  .00010498  00000+0  35743-3 0  9992
2 52744  97.6410  85.9937 0007705 175.5531 184.5779 15.30577200191550
GHGSAT-C6               
1 56204U 23054AC  25311.28238813  .00017311  00000+0  36192-3 0  9994
2 56204  97.3171 213.1825 0010521 120.9025 239.3260 15.45491054144098
GHGSAT-C7               
1 56209U 23054AH  25311.23497251  .00013845  00000+0  30328-3 0  9990
2 56209  97.3131 212.4628 0010528 116.1192 244.1141 15.44163234144076
GHGSAT-C8               
1 56186U 23054J   25311.25597172  .00017180  00000+0  35924-3 0  9992
2 56186  97.3137 212.5982 0007511 133.1741 227.0137 15.45517457144073
SENTINEL-5P             
1 42969U 17064A   25311.24166860  .00000139  00000+0  87023-4 0  9999
2 42969  98.7726 250.1508 0001047  77.9784 282.1509 14.19503199418075
ENMAP                   
1 52159U 22033C   25311.26364792  .00000789  00000+0  12475-3 0  9998
2 52159  97.9796  31.6900 0000978  92.8966 267.2355 14.74978914193944
PRISMA                  
1 44072U 19015A   25311.25722949  .00001366  00000+0  17196-3 0  9997
2 44072  97.8736  24.2194 0001376  96.4079 263.7292 14.83642815359148
SENTINEL-2A             
1 40697U 15028A   25311.32657816  .00000255  00000+0  11403-3 0  9995
2 40697  98.5729  24.3588 0001088  93.9710 266.1598 14.30821522542000
SENTINEL-2B             
1 42063U 17013A   25311.24941450  .00000213  00000+0  98036-4 0  9993
2 42063  98.5662  24.2074 0001010  99.2814 260.8483 14.30812930452909
SENTINEL-2C             
1 60989U 24157A   25311.14471387  .00000211  00000+0  97033-4 0  9997
2 60989  98.5640  24.1587 0000968 102.4644 257.6647 14.30822120 61239
LANDSAT 8               
1 39084U 13008A   25311.22292052  .00000701  00000+0  16555-3 0  9994
2 39084  98.2111  19.8128 0001216  88.2750 271.8588 14.57116596665570
LANDSAT 9               
1 49260U 21088A   25311.18863817  .00000594  00000+0  14199-3 0  9998
2 49260  98.2134  19.8073 0001247  83.3536 276.7805 14.57102933218674
